*******************************************************************************
JPL/HORIZONS               853 Nansenia (A916 GN)          2023-Sep-04 11:08:46
Rec #:     853 (+COV) Soln.date: 2023-Aug-24_21:29:35   # obs: 7033 (1920-2023)
 
IAU76/J2000 helio. ecliptic osc. elements (au, days, deg., period=Julian yrs):
 
  EPOCH=  2457437.5 ! 2016-Feb-19.00 (TDB)         Residual RMS= .25872
   EC= .1054037547115281   QR= 2.068910515148759   TP= 2457040.8728783252
   OM= 182.8637595768828   W=  59.95093128013408   IN= 9.217094669750429
   A= 2.312675160492784    MA= 111.1512953818278   ADIST= 2.55643980583681
   PER= 3.51706            N= .280241288           ANGMOM= .026014337
   DAN= 2.17233            DDN= 2.41441            L= 242.4909145
   B= 7.9695955            MOID= 1.07579005        TP= 2015-Jan-18.3728783252
 
Asteroid physical parameters (km, seconds, rotational period in hours):
   GM= n.a.                RAD= 13.7965            ROTPER= 7.931
   H= 11.64                G= .150                 B-V= .710
                           ALBEDO= .051            STYP= Ch

ASTEROID comments: 
1: soln ref.= JPL#59, OCC=0
2: source=ORB
*******************************************************************************


*******************************************************************************
Ephemeris / API_USER Mon Sep  4 11:08:46 2023 Pasadena, USA      / Horizons
*******************************************************************************
Target body name: 853 Nansenia (A916 GN)          {source: JPL#59}
Center body name: Solar System Barycenter (0)     {source: DE441}
Center-site name: BODY CENTER
*******************************************************************************
Start time      : A.D. 2023-Aug-12 00:00:00.0000 TDB
Stop  time      : A.D. 2023-Aug-13 00:00:00.0000 TDB
Step-size       : 2880 minutes
*******************************************************************************
Center geodetic : 0.0, 0.0, 0.0                   {E-lon(deg),Lat(deg),Alt(km)}
Center cylindric: 0.0, 0.0, 0.0                   {E-lon(deg),Dxy(km),Dz(km)}
Center radii    : (undefined)
Small perturbers: Yes                             {source: SB441-N16}
Output units    : KM-S
Calendar mode   : Mixed Julian/Gregorian
Output type     : GEOMETRIC cartesian states
Output format   : 2 (position and velocity)
Reference frame : Ecliptic of J2000.0
*******************************************************************************
Initial IAU76/J2000 heliocentric ecliptic osculating elements (au, days, deg.):
  EPOCH=  2457437.5 ! 2016-Feb-19.00 (TDB)         Residual RMS= .25872        
   EC= .1054037547115281   QR= 2.068910515148759   TP= 2457040.8728783252      
   OM= 182.8637595768828   W=  59.95093128013408   IN= 9.217094669750429       
  Equivalent ICRF heliocentric cartesian coordinates (au, au/d):
   X= 2.413701290139967E+00  Y= 1.843062808881174E-01  Z= 6.667957483591158E-02
  VX= 1.500031218620822E-04 VY= 1.045803831026677E-02 VZ= 2.654038057049238E-03
Asteroid physical parameters (km, seconds, rotational period in hours):        
   GM= n.a.                RAD= 13.7965            ROTPER= 7.931               
   H= 11.64                G= .150                 B-V= .710                   
                           ALBEDO= .051            STYP= Ch                    
*******************************************************************************
JDTDB
   X     Y     Z
   VX    VY    VZ
*******************************************************************************
$$SOE
2460168.500000000 = A.D. 2023-Aug-12 00:00:00.0000 TDB 
 X = 2.739610995338202E+08 Y = 2.587188264473777E+08 Z =-3.972939105108692E+07
 VX=-1.171782662868327E+01 VY= 1.312575356333928E+01 VZ=-2.222244809895014E+00
$$EOE
*******************************************************************************
 
TIME

  Barycentric Dynamical Time ("TDB" or T_eph) output was requested. This
continuous coordinate time is equivalent to the relativistic proper time
of a clock at rest in a reference frame co-moving with the solar system
barycenter but outside the system's gravity well. It is the independent
variable in the solar system relativistic equations of motion.

  TDB runs at a uniform rate of one SI second per second and is independent
of irregularities in Earth's rotation.
 
CALENDAR SYSTEM

  Mixed calendar mode was active such that calendar dates after AD 1582-Oct-15
(if any) are in the modern Gregorian system. Dates prior to 1582-Oct-5 (if any)
are in the Julian calendar system, which is automatically extended for dates
prior to its adoption on 45-Jan-1 BC.  The Julian calendar is useful for
matching historical dates. The Gregorian calendar more accurately corresponds
to the Earth's orbital motion and seasons. A "Gregorian-only" calendar mode is
available if such physical events are the primary interest.

REFERENCE FRAME AND COORDINATES

  Ecliptic at the standard reference epoch

    Reference epoch: J2000.0
    X-Y plane: adopted Earth orbital plane at the reference epoch
               Note: IAU76 obliquity of 84381.448 arcseconds wrt ICRF X-Y plane
    X-axis   : ICRF
    Z-axis   : perpendicular to the X-Y plane in the directional (+ or -) sense
               of Earth's north pole at the reference epoch.

  Symbol meaning:

    JDTDB    Julian Day Number, Barycentric Dynamical Time
      X      X-component of position vector (km)
      Y      Y-component of position vector (km)
      Z      Z-component of position vector (km)
      VX     X-component of velocity vector (km/sec)                           
      VY     Y-component of velocity vector (km/sec)                           
      VZ     Z-component of velocity vector (km/sec)                           

ABERRATIONS AND CORRECTIONS

 Geometric state vectors have NO corrections or aberrations applied.

Computations by ...

    Solar System Dynamics Group, Horizons On-Line Ephemeris System
    4800 Oak Grove Drive, Jet Propulsion Laboratory
    Pasadena, CA  91109   USA

    General site: https://ssd.jpl.nasa.gov/
    Mailing list: https://ssd.jpl.nasa.gov/email_list.html
    System news : https://ssd.jpl.nasa.gov/horizons/news.html
    User Guide  : https://ssd.jpl.nasa.gov/horizons/manual.html
    Connect     : browser        https://ssd.jpl.nasa.gov/horizons/app.html#/x
                  API            https://ssd-api.jpl.nasa.gov/doc/horizons.html
                  command-line   telnet ssd.jpl.nasa.gov 6775
                  e-mail/batch   https://ssd.jpl.nasa.gov/ftp/ssd/hrzn_batch.txt
                  scripts        https://ssd.jpl.nasa.gov/ftp/ssd/SCRIPTS
    Author      : Jon.D.Giorgini@jpl.nasa.gov
*******************************************************************************
